[{"OBJECT_NAME":"DCS-1","OBJECT_ID":"2025-313R","EPOCH":"2026-03-09T22:34:45.868224","MEAN_MOTION":15.21562848,"ECCENTRICITY":0.00145796,"INCLINATION":97.4021,"RA_OF_ASC_NODE":145.2125,"ARG_OF_PERICENTER":357.8679,"MEAN_ANOMALY":2.2492,"EPHEMERIS_TYPE":0,"CLASSIFICATION_TYPE":"U","NORAD_CAT_ID":67263,"ELEMENT_SET_NO":999,"REV_AT_EPOCH":1085,"BSTAR":0.0005215367,"MEAN_MOTION_DOT":0.00011729,"MEAN_MOTION_DDOT":0},{"OBJECT_NAME":"GALAPAGOS-UTE-SWSU","OBJECT_ID":"2025-313AH","EPOCH":"2026-03-09T22:34:20.965152","MEAN_MOTION":15.21376357,"ECCENTRICITY":0.00141435,"INCLINATION":97.3994,"RA_OF_ASC_NODE":145.1857,"ARG_OF_PERICENTER":358.5114,"MEAN_ANOMALY":1.6077,"EPHEMERIS_TYPE":0,"CLASSIFICATION_TYPE":"U","NORAD_CAT_ID":67279,"ELEMENT_SET_NO":999,"REV_AT_EPOCH":1085,"BSTAR":0.00042377017,"MEAN_MOTION_DOT":9.461e-5,"MEAN_MOTION_DDOT":0}]
